OBJECT_NAME,OBJECT_ID,EPOCH,MEAN_MOTION,ECCENTRICITY,INCLINATION,RA_OF_ASC_NODE,ARG_OF_PERICENTER,MEAN_ANOMALY,EPHEMERIS_TYPE,CLASSIFICATION_TYPE,NORAD_CAT_ID,ELEMENT_SET_NO,REV_AT_EPOCH,BSTAR,MEAN_MOTION_DOT,MEAN_MOTION_DDOT
SL-14 R/B,1990-018B,2026-07-08T00:09:07.932384,14.82230752,.0017476,82.5222,110.6496,58.9540,301.3387,0,U,20511,999,94040,.34807E-4,.302E-5,0
HST,1990-037B,2026-07-07T17:50:38.876064,15.31004191,.0001929,28.4736,300.0580,32.3294,327.7420,0,U,20580,999,79172,.13593E-3,.4421E-4,0
SL-16 R/B,1990-046B,2026-07-08T00:20:23.031744,14.15022817,.0012489,70.9984,45.2072,127.0168,233.2099,0,U,20625,999,86541,-.26562E-4,-.99E-6,0
COSMOS 2084,1990-055A,2026-07-07T07:27:57.769056,15.06204447,.00071224,62.7906,287.4010,310.3089,49.7388,0,U,20663,999,95433,.11530448E-3,.1496E-4,0
SL-6 R/B(2),1990-055D,2026-07-08T01:24:44.500896,15.04068280,.0043978,62.7797,204.3483,8.0314,352.1479,0,U,20666,999,95629,.10275E-3,.1249E-4,0
SL-8 R/B,1990-078B,2026-07-07T21:44:53.507040,14.93374190,.0344749,82.9025,142.9091,328.3442,29.7441,0,U,20775,999,82721,.41809E-3,.14763E-3,0
SL-8 R/B,1991-006B,2026-07-08T03:30:21.450240,13.77508270,.0023732,82.9418,80.4416,59.2958,92.7796,0,U,21088,999,78065,.44701E-4,.6E-6,0
OKEAN-3,1991-039A,2026-07-07T14:40:40.346112,15.05411160,.0011975,82.5138,220.5742,283.0580,76.9310,0,U,21397,999,88307,.94688E-4,.1388E-4,0
COSMOS 2151,1991-042A,2026-07-08T03:11:32.457984,15.00499832,.0012645,82.4976,327.4657,19.1570,341.0127,0,U,21422,999,88125,.11752E-3,.1509E-4,0
SL-14 R/B,1991-042B,2026-07-08T02:02:07.960704,14.81915312,.0016343,82.4937,107.2996,200.6193,159.4364,0,U,21423,999,87090,.28214E-4,.247E-5,0
ERS-1,1991-050A,2026-07-08T02:04:36.305184,14.39529661,.0031464,98.7794,210.2948,203.0169,156.9610,0,U,21574,999,83305,.66168E-4,.161E-5,0
ARIANE 40 R/B,1991-050F,2026-07-08T03:05:54.570912,14.42969215,.0004383,98.1864,236.7291,76.6640,283.5039,0,U,21610,999,83636,.66292E-4,.18E-5,0
INTERCOSMOS 25,1991-086A,2026-07-08T01:50:45.018816,12.12231006,.1484226,82.6019,237.1686,217.2901,131.5579,0,U,21819,999,51127,.2324E-3,.1178E-4,0
SL-8 R/B,1992-008B,2026-07-07T23:51:38.366784,13.75982151,.0035266,82.9264,178.3169,156.2938,258.4688,0,U,21876,999,72596,.11265E-3,.125E-5,0
SL-8 R/B,1992-020B,2026-07-08T02:15:41.927328,13.75550304,.0028287,82.9292,64.3269,324.1459,188.7340,0,U,21938,999,71768,.56017E-5,.2E-6,0
USA 81,1992-023A,2026-07-08T02:12:26.442144,14.32403588,.0002286,85.0058,61.9405,68.0467,292.0969,0,U,21949,999,11202,.32662E-4,.108E-5,0
COSMOS 2219,1992-076A,2026-07-07T21:59:56.698080,14.14110102,.0017781,71.0614,126.7381,9.1281,351.0161,0,U,22219,999,73537,.30555E-5,-.41E-6,0
SL-16 R/B,1992-076B,2026-07-07T17:23:17.435040,14.16874226,.0014995,71.0009,295.5183,271.6971,195.8666,0,U,22220,999,73883,.66915E-4,.86E-6,0
COSMOS 2221,1992-080A,2026-07-07T22:23:33.690912,14.96589551,.0015225,82.5037,163.8876,142.6548,217.5736,0,U,22236,999,79877,.10698E-3,.1247E-4,0
SL-16 R/B,1992-093B,2026-07-07T22:45:58.258944,14.15466922,.0002704,71.0223,111.8076,150.4649,209.6627,0,U,22285,999,73017,.37687E-4,.26E-6,0
COSMOS 2228,1992-094A,2026-07-08T03:13:11.696160,14.97660527,.0016014,82.5189,121.9791,255.2719,104.6729,0,U,22286,999,79408,.11529E-3,.1378E-4,0
SL-16 R/B,1993-016B,2026-07-07T17:15:04.796064,14.15311830,.0009083,71.0085,323.0831,151.4570,208.7052,0,U,22566,999,71915,-.65416E-4,-.175E-5,0
COSMOS 2242,1993-024A,2026-07-08T00:52:23.295936,14.96969413,.0014373,82.5192,151.5954,259.4208,100.5396,0,U,22626,999,79839,.1181E-3,.1386E-4,0
SL-16 R/B,1993-059B,2026-07-07T22:59:47.891616,14.17251244,.0016268,70.9907,117.5020,19.7434,340.4316,0,U,22803,999,69657,-.18602E-4,-.86E-6,0
ARIANE 40 R/B,1993-061H,2026-07-08T03:41:27.501792,14.32916610,.0009483,98.4809,255.5744,289.3479,70.6680,0,U,22830,999,71135,.6154E-4,.125E-5,0
COSMOS 2278,1994-023A,2026-07-07T16:27:31.421376,14.14394633,.0009995,71.0537,284.0376,217.0234,143.0200,0,U,23087,999,66177,-.92609E-4,-.225E-5,0
SL-16 R/B,1994-023B,2026-07-07T23:04:04.194624,14.15024363,.0001585,70.9977,178.3037,152.7401,207.3805,0,U,23088,999,66310,-.72024E-4,-.187E-5,0
SL-16 R/B,1994-074B,2026-07-08T00:56:57.741216,14.79519995,.0006548,97.6985,214.8909,176.2309,213.8891,0,U,23343,999,70504,.43516E-4,.276E-5,0
SL-16 R/B,1994-077B,2026-07-08T02:35:16.863648,14.15576548,.0004027,70.9831,99.1505,309.0502,51.0262,0,U,23405,999,63327,-.11243E-3,-.268E-5,0
ARIANE 40+ R/B,1995-021B,2026-07-08T02:27:16.204032,14.39844927,.0007675,98.4403,258.8743,134.7075,243.5489,0,U,23561,999,63657,.67791E-4,.169E-5,0
SL-16 R/B,1995-058B,2026-07-07T16:43:07.134240,14.15508705,.0014628,71.0220,288.2983,292.6157,67.3418,0,U,23705,999,58483,-.87599E-4,-.219E-5,0
