SL-14 R/B               
1 20511U 90018B   26189.00634181  .00000302  00000+0  34807-4 0  9996
2 20511  82.5222 110.6496 0017476  58.9540 301.3387 14.82230752940401
HST                     
1 20580U 90037B   26188.74350551  .00004421  00000+0  13593-3 0  9993
2 20580  28.4736 300.0580 0001929  32.3294 327.7420 15.31004191791723
SL-16 R/B               
1 20625U 90046B   26189.01415546 -.00000099  00000+0 -26562-4 0  9990
2 20625  70.9984  45.2072 0012489 127.0168 233.2099 14.15022817865416
COSMOS 2084             
1 20663U 90055A   26188.31108529  .00001496  00000+0  11530-3 0  9992
2 20663  62.7906 287.4010 0007122 310.3089  49.7388 15.06204447954333
SL-6 R/B(2)             
1 20666U 90055D   26189.05884839  .00001249  00000+0  10275-3 0  9993
2 20666  62.7797 204.3483 0043978   8.0314 352.1479 15.04068280956297
SL-8 R/B                
1 20775U 90078B   26188.90617485  .00014763  00000+0  41809-3 0  9995
2 20775  82.9025 142.9091 0344749 328.3442  29.7441 14.93374190827210
SL-8 R/B                
1 21088U 91006B   26189.14608160  .00000060  00000+0  44701-4 0  9992
2 21088  82.9418  80.4416 0023732  59.2958  92.7796 13.77508270780657
OKEAN-3                 
1 21397U 91039A   26188.61157808  .00001388  00000+0  94688-4 0  9993
2 21397  82.5138 220.5742 0011975 283.0580  76.9310 15.05411160883078
COSMOS 2151             
1 21422U 91042A   26189.13301456  .00001509  00000+0  11752-3 0  9999
2 21422  82.4976 327.4657 0012645  19.1570 341.0127 15.00499832881257
SL-14 R/B               
1 21423U 91042B   26189.08481436  .00000247  00000+0  28214-4 0  9991
2 21423  82.4937 107.2996 0016343 200.6193 159.4364 14.81915312870900
ERS-1                   
1 21574U 91050A   26189.08653131  .00000161  00000+0  66168-4 0  9995
2 21574  98.7794 210.2948 0031464 203.0169 156.9610 14.39529661833053
ARIANE 40 R/B           
1 21610U 91050F   26189.12910383  .00000180  00000+0  66292-4 0  9995
2 21610  98.1864 236.7291 0004383  76.6640 283.5039 14.42969215836364
INTERCOSMOS 25          
1 21819U 91086A   26189.07690994  .00001178  00000+0  23240-3 0  9995
2 21819  82.6019 237.1686 1484226 217.2901 131.5579 12.12231006511276
SL-8 R/B                
1 21876U 92008B   26188.99419406  .00000125  00000+0  11265-3 0  9995
2 21876  82.9264 178.3169 0035266 156.2938 258.4688 13.75982151725960
SL-8 R/B                
1 21938U 92020B   26189.09423527  .00000020  00000+0  56017-5 0  9999
2 21938  82.9292  64.3269 0028287 324.1459 188.7340 13.75550304717685
USA 81                  
1 21949U 92023A   26189.09197271  .00000108  00000+0  32662-4 0  9994
2 21949  85.0058  61.9405 0002286  68.0467 292.0969 14.32403588112028
COSMOS 2219             
1 22219U 92076A   26188.91662845 -.00000041  00000+0  30555-5 0  9994
2 22219  71.0614 126.7381 0017781   9.1281 351.0161 14.14110102735377
SL-16 R/B               
1 22220U 92076B   26188.72450735  .00000086  00000+0  66915-4 0  9994
2 22220  71.0009 295.5183 0014995 271.6971 195.8666 14.16874226738832
COSMOS 2221             
1 22236U 92080A   26188.93302883  .00001247  00000+0  10698-3 0  9995
2 22236  82.5037 163.8876 0015225 142.6548 217.5736 14.96589551798778
SL-16 R/B               
1 22285U 92093B   26188.94859096  .00000026  00000+0  37687-4 0  9999
2 22285  71.0223 111.8076 0002704 150.4649 209.6627 14.15466922730172
COSMOS 2228             
1 22286U 92094A   26189.13416315  .00001378  00000+0  11529-3 0  9993
2 22286  82.5189 121.9791 0016014 255.2719 104.6729 14.97660527794082
SL-16 R/B               
1 22566U 93016B   26188.71880551 -.00000175  00000+0 -65416-4 0  9990
2 22566  71.0085 323.0831 0009083 151.4570 208.7052 14.15311830719151
COSMOS 2242             
1 22626U 93024A   26189.03638074  .00001386  00000+0  11810-3 0  9994
2 22626  82.5192 151.5954 0014373 259.4208 100.5396 14.96969413798397
SL-16 R/B               
1 22803U 93059B   26188.95819319 -.00000086  00000+0 -18602-4 0  9997
2 22803  70.9907 117.5020 0016268  19.7434 340.4316 14.17251244696571
ARIANE 40 R/B           
1 22830U 93061H   26189.15379053  .00000125  00000+0  61540-4 0  9990
2 22830  98.4809 255.5744 0009483 289.3479  70.6680 14.32916610711350
COSMOS 2278             
1 23087U 94023A   26188.68578034 -.00000225  00000+0 -92609-4 0  9994
2 23087  71.0537 284.0376 0009995 217.0234 143.0200 14.14394633661771
SL-16 R/B               
1 23088U 94023B   26188.96115966 -.00000187  00000+0 -72024-4 0  9993
2 23088  70.9977 178.3037 0001585 152.7401 207.3805 14.15024363663100
SL-16 R/B               
1 23343U 94074B   26189.03955719  .00000276  00000+0  43516-4 0  9991
2 23343  97.6985 214.8909 0006548 176.2309 213.8891 14.79519995705042
SL-16 R/B               
1 23405U 94077B   26189.10783407 -.00000268  00000+0 -11243-3 0  9998
2 23405  70.9831  99.1505 0004027 309.0502  51.0262 14.15576548633278
ARIANE 40+ R/B          
1 23561U 95021B   26189.10227088  .00000169  00000+0  67791-4 0  9997
2 23561  98.4403 258.8743 0007675 134.7075 243.5489 14.39844927636579
SL-16 R/B               
1 23705U 95058B   26188.69661035 -.00000219  00000+0 -87599-4 0  9990
2 23705  71.0220 288.2983 0014628 292.6157  67.3418 14.15508705584837
